0 GORIZONT 33
1 26372U 00029A   24189.06441216 -.00000171  00000-0  00000+0 0  9998
2 26372  13.5164  11.8959 0002192 168.0278 206.5241  1.00395226 88296
