OBJECT_NAME,OBJECT_ID,EPOCH,MEAN_MOTION,ECCENTRICITY,INCLINATION,RA_OF_ASC_NODE,ARG_OF_PERICENTER,MEAN_ANOMALY,EPHEMERIS_TYPE,CLASSIFICATION_TYPE,NORAD_CAT_ID,ELEMENT_SET_NO,REV_AT_EPOCH,BSTAR,MEAN_MOTION_DOT,MEAN_MOTION_DDOT
GORIZONT 33,2000-029A,2024-07-07T01:32:45.210624,1.00395226,.0002192,13.5164,11.8959,168.0278,206.5241,0,U,26372,999,8831,0,-.171E-5,0
